STARLINK-31575          
1 59471U 24068S   26068.29939947 -.00001866  00000+0 -58305-4 0  9997
2 59471  43.0058  33.2061 0001486 252.8034 107.2655 15.27570718108509
HAWK-11A                
1 62382U 24247F   26068.51231358  .00009457  00000+0  34106-3 0  9991
2 62382  44.9941 114.3328 0005466 327.3713  32.6832 15.28849427 67741
